     2.10           NAVIGATION DATA     GPS(GPS)            RINEX VERSION / TYPE
cnvtToRINEX 3.07.0  convertToRINEX OPR  19-May-20 12:30 UTC PGM / RUN BY / DATE 
----------------------------------------------------------- COMMENT             
    0.7451D-08  0.2235D-07 -0.5960D-07 -0.1192D-06          ION ALPHA           
    0.8602D+05  0.8192D+05 -0.1311D+06 -0.5243D+06          ION BETA            
   -0.279396772385D-08-0.266453525910D-14   147456     2105 DELTA-UTC: A0,A1,T,W
    18                                                      LEAP SECONDS        
                                                            END OF HEADER       
 3 20 05 16 02 00  0.0-0.177039299160D-03-0.121644916362D-10 0.000000000000D+00
    0.970000000000D+02-0.688437500000D+02 0.466698011274D-08-0.286514252402D+01
   -0.356510281563D-05 0.280411727726D-02 0.621005892754D-05 0.515355618286D+04
    0.525600000000D+06 0.111758708954D-07-0.192032416932D+01-0.949949026108D-07
    0.965320235794D+00 0.259156250000D+03 0.699636723935D+00-0.814962517889D-08
   -0.159649507186D-09 0.100000000000D+01 0.210500000000D+04 0.000000000000D+00
    0.240000000000D+01 0.000000000000D+00 0.186264514923D-08 0.970000000000D+02
    0.519936000000D+06 0.400000000000D+01 0.000000000000D+00 0.000000000000D+00
16 20 05 16 02 00  0.0-0.158670824021D-03-0.454747350886D-11 0.000000000000D+00
    0.520000000000D+02 0.153125000000D+01 0.412802909184D-08 0.116753351365D+01
    0.160187482834D-06 0.115095577203D-01 0.676512718201D-05 0.515375885010D+04
    0.525600000000D+06-0.104308128357D-06 0.130973756858D+01 0.800937414169D-07
    0.978501559249D+00 0.260718750000D+03 0.631236128307D+00-0.799997608826D-08
   -0.382158775590D-09 0.100000000000D+01 0.210500000000D+04 0.000000000000D+00
    0.240000000000D+01 0.000000000000D+00-0.107102096081D-07 0.520000000000D+02
    0.519936000000D+06 0.400000000000D+01 0.000000000000D+00 0.000000000000D+00
 8 20 05 16 02 00  0.0-0.341376289725D-04-0.136424205266D-11 0.000000000000D+00
    0.610000000000D+02 0.202187500000D+02 0.413088635371D-08 0.443749623976D+00
    0.110641121864D-05 0.534962327220D-02 0.877305865288D-05 0.515367086601D+04
    0.525600000000D+06 0.128522515297D-06 0.225301020550D+01-0.149011611938D-07
    0.969661007782D+00 0.214843750000D+03-0.795197166125D-01-0.795783147562D-08
    0.514307137242D-10 0.100000000000D+01 0.210500000000D+04 0.000000000000D+00
    0.240000000000D+01 0.000000000000D+00 0.512227416039D-08 0.610000000000D+02
    0.519936000000D+06 0.400000000000D+01 0.000000000000D+00 0.000000000000D+00
26 20 05 16 02 00  0.0 0.207179225981D-03 0.716227077646D-11 0.000000000000D+00
    0.430000000000D+02 0.415625000000D+01 0.489520390489D-08 0.213513681012D+01
    0.175088644028D-06 0.474227825180D-02 0.594742596149D-05 0.515361411858D+04
    0.525600000000D+06-0.409781932831D-07 0.118694490196D+01 0.633299350739D-07
    0.946751403448D+00 0.257718750000D+03 0.228764556345D+00-0.829998858498D-08
   -0.255367779950D-09 0.100000000000D+01 0.210500000000D+04 0.000000000000D+00
    0.240000000000D+01 0.000000000000D+00 0.698491930962D-08 0.430000000000D+02
    0.519936000000D+06 0.400000000000D+01 0.000000000000D+00 0.000000000000D+00
27 20 05 16 02 00  0.0-0.294782221317D-03-0.102318153949D-10 0.000000000000D+00
    0.700000000000D+02 0.230625000000D+02 0.399088052191D-08 0.285514921505D+00
    0.121630728245D-05 0.828082300723D-02 0.885874032974D-05 0.515366778946D+04
    0.525600000000D+06 0.633299350739D-07 0.226720885974D+01 0.141561031342D-06
    0.978089303083D+00 0.220906250000D+03 0.558200721472D+00-0.791247244338D-08
    0.325013538118D-10 0.100000000000D+01 0.210500000000D+04 0.000000000000D+00
    0.240000000000D+01 0.000000000000D+00 0.186264514923D-08 0.700000000000D+02
    0.519942000000D+06 0.400000000000D+01 0.000000000000D+00 0.000000000000D+00
31 20 05 16 02 00  0.0-0.426541082561D-04-0.250111042988D-11 0.000000000000D+00
    0.890000000000D+02 0.470937500000D+02 0.465662253845D-08-0.295554472731D+01
    0.235065817833D-05 0.951562973205D-02 0.666640698910D-05 0.515357162666D+04
    0.525600000000D+06-0.931322574615D-07 0.200423100609D+00-0.260770320892D-07
    0.958058229988D+00 0.251281250000D+03 0.130911238761D+00-0.803426323074D-08
    0.714315468392D-10 0.100000000000D+01 0.210500000000D+04 0.000000000000D+00
    0.240000000000D+01 0.000000000000D+00-0.130385160446D-07 0.890000000000D+02
    0.519918000000D+06 0.400000000000D+01 0.000000000000D+00 0.000000000000D+00
14 20 05 16 01 59 44.0-0.127088278532D-04 0.261479726760D-11 0.000000000000D+00
    0.900000000000D+01-0.187500000000D+00 0.452340270359D-08 0.722398120038D-01
    0.949949026108D-07 0.114186793799D-01 0.102501362562D-04 0.515364671135D+04
    0.525584000000D+06-0.165775418282D-06-0.793127221892D+00 0.143423676491D-06
    0.960387976768D+00 0.184093750000D+03-0.191803549543D+01-0.812390982202D-08
   -0.600024993449D-10 0.100000000000D+01 0.210500000000D+04 0.000000000000D+00
    0.240000000000D+01 0.000000000000D+00-0.977888703346D-08 0.900000000000D+01
    0.519978000000D+06 0.400000000000D+01 0.000000000000D+00 0.000000000000D+00
 4 20 05 16 02 00  0.0-0.898670405149D-04-0.500222085975D-11 0.000000000000D+00
    0.780000000000D+02-0.150000000000D+02 0.440804075545D-08-0.720224389082D+00
   -0.977888703346D-06 0.741854426451D-03 0.107623636723D-04 0.515368777847D+04
    0.525600000000D+06 0.186264514923D-07-0.841111202606D+00 0.428408384323D-07
    0.959885849156D+00 0.170406250000D+03-0.260002578759D+01-0.787747098543D-08
   -0.835749098019D-10 0.100000000000D+01 0.210500000000D+04 0.000000000000D+00
    0.240000000000D+01 0.000000000000D+00-0.419095158577D-08 0.846000000000D+03
    0.519978000000D+06 0.400000000000D+01 0.000000000000D+00 0.000000000000D+00
21 20 05 16 02 00  0.0-0.867061316967D-06 0.500222085975D-11 0.000000000000D+00
    0.440000000000D+02 0.255937500000D+02 0.473233997810D-08 0.255604095092D+01
    0.120513141155D-05 0.239439604338D-01 0.495091080666D-05 0.515515299416D+04
    0.525600000000D+06 0.387430191040D-06-0.303448123554D+01-0.558793544769D-07
    0.953269136514D+00 0.276281250000D+03-0.132868859413D+01-0.789818613401D-08
    0.132148361653D-09 0.100000000000D+01 0.210500000000D+04 0.000000000000D+00
    0.240000000000D+01 0.000000000000D+00-0.102445483208D-07 0.440000000000D+02
    0.520428000000D+06 0.400000000000D+01 0.000000000000D+00 0.000000000000D+00
 9 20 05 16 02 00  0.0-0.218062661588D-03-0.727595761418D-11 0.000000000000D+00
    0.190000000000D+02-0.253437500000D+02 0.455733268834D-08 0.644372268074D+00
   -0.138208270073D-05 0.152555888053D-02 0.104494392872D-04 0.515373805237D+04
    0.525600000000D+06-0.242143869400D-07-0.888935773526D+00 0.558793544769D-08
    0.952571709338D+00 0.173343750000D+03 0.181447539879D+01-0.798390399022D-08
   -0.628597612185D-10 0.100000000000D+01 0.210500000000D+04 0.000000000000D+00
    0.240000000000D+01 0.000000000000D+00 0.139698386192D-08 0.190000000000D+02
    0.520572000000D+06 0.400000000000D+01 0.000000000000D+00 0.000000000000D+00
11 20 05 16 01 59 44.0-0.276183243841D-03 0.106865627458D-10 0.000000000000D+00
    0.400000000000D+02 0.472500000000D+02 0.549665752928D-08-0.234457854467D+01
    0.270083546638D-05 0.159532180987D-01 0.652484595776D-05 0.515371895790D+04
    0.525584000000D+06 0.117346644402D-06 0.284889299176D+01 0.240281224251D-06
    0.912907146247D+00 0.224406250000D+03 0.198205509175D+01-0.840606443204D-08
    0.332513850537D-09 0.100000000000D+01 0.210500000000D+04 0.000000000000D+00
    0.240000000000D+01 0.000000000000D+00-0.125728547573D-07 0.400000000000D+02
    0.521742000000D+06 0.400000000000D+01 0.000000000000D+00 0.000000000000D+00
